{
    "links": {
        "self": "http://www.neowsapp.com/rest/v1/neo/3678608?api_key=iIulBulltgU6a56xZRHN4H3l9WmuAYTsLGpBGhQ2"
    },
    "id": "3678608",
    "neo_reference_id": "3678608",
    "name": "(2014 OR338)",
    "designation": "2014 OR338",
    "nasa_jpl_url": "http://ssd.jpl.nasa.gov/sbdb.cgi?sstr=3678608",
    "absolute_magnitude_h": 24.2,
    "estimated_diameter": {
        "kilometers": {
            "estimated_diameter_min": 0.0384197891,
            "estimated_diameter_max": 0.0859092601
        },
        "meters": {
            "estimated_diameter_min": 38.4197891064,
            "estimated_diameter_max": 85.9092601232
        },
        "miles": {
            "estimated_diameter_min": 0.0238729428,
            "estimated_diameter_max": 0.0533815229
        },
        "feet": {
            "estimated_diameter_min": 126.0491808919,
            "estimated_diameter_max": 281.8545369825
        }
    },
    "is_potentially_hazardous_asteroid": false,
    "close_approach_data": [
        {
            "close_approach_date": "2014-08-01",
            "close_approach_date_full": "2014-Aug-01 04:49",
            "epoch_date_close_approach": 1406868540000,
            "relative_velocity": {
                "kilometers_per_second": "5.5223299418",
                "kilometers_per_hour": "19880.3877905062",
                "miles_per_hour": "12352.8998468287"
            },
            "miss_distance": {
                "astronomical": "0.1721012022",
                "lunar": "66.9473676558",
                "kilometers": "25745973.273559314",
                "miles": "15997805.9640699732"
            },
            "orbiting_body": "Earth"
        }
    ],
    "orbital_data": {
        "orbit_id": "5",
        "orbit_determination_date": "2017-04-06 08:39:27",
        "first_observation_date": "2014-07-27",
        "last_observation_date": "2014-08-15",
        "data_arc_in_days": 19,
        "observations_used": 12,
        "orbit_uncertainty": "7",
        "minimum_orbit_intersection": ".173101",
        "jupiter_tisserand_invariant": "3.585",
        "epoch_osculation": "2459000.5",
        "eccentricity": ".4414973427343647",
        "semi_major_axis": "2.1247939494181",
        "inclination": "7.909111411597907",
        "ascending_node_longitude": "123.5681246720276",
        "orbital_period": "1131.289244952949",
        "perihelion_distance": "1.186703066891953",
        "perihelion_argument": "187.9556217014631",
        "aphelion_distance": "3.062884831944247",
        "perihelion_time": "2459137.915018634253",
        "mean_anomaly": "316.2716547257651",
        "mean_motion": ".3182210045804621",
        "equinox": "J2000",
        "orbit_class": {
            "orbit_class_type": "AMO",
            "orbit_class_description": "Near-Earth asteroid orbits similar to that of 1221 Amor",
            "orbit_class_range": "1.017 AU < q (perihelion) < 1.3 AU"
        }
    },
    "is_sentry_object": false
}